ONEWEB-0210             
1 48787U 21045W   24209.92055637 -.00000013  00000+0 -67863-4 0  9999
2 48787  87.9016  36.3387 0001923  60.3996 299.7326 13.15548951153699
ONEWEB-0214             
1 48788U 21045X   24210.08217766 -.00000102  00000+0 -30617-3 0  9997
2 48788  87.9016  36.2950 0002071  70.7282 289.4072 13.15549097154803
ONEWEB-0221             
1 48789U 21045Y   24209.93638777 -.00000184  00000+0 -52176-3 0  9993
2 48789  87.9019  36.3434 0001574  83.7603 276.3706 13.15547080153755
ONEWEB-0213             
1 48790U 21045Z   24209.46895997 -.00000072  00000+0 -22426-3 0  9993
2 48790  87.9017  36.4493 0001590  76.8631 283.2676 13.15548902153750
ONEWEB-0212             
1 48791U 21045AA  24210.05444954  .00000103  00000+0  23863-3 0  9993
2 48791  87.9022  36.3163 0001764  90.9954 269.1379 13.15548395154961
ONEWEB-0227             
1 48792U 21045AB  24210.05365624  .00000159  00000+0  38807-3 0  9995
2 48792  87.9020  36.3317 0001620  85.0150 275.1165 13.15549179154900
ONEWEB-0226             
1 48793U 21045AC  24210.04731861  .00000160  00000+0  39130-3 0  9997
2 48793  87.9019  36.3392 0001736  70.8846 289.2472 13.15548778154860
ONEWEB-0224             
1 48794U 21045AD  24209.47846927 -.00000104  00000+0 -31131-3 0  9996
2 48794  87.9021  36.4752 0000805 114.6734 245.4480 13.15548521153592
